[{"OBJECT_NAME":"GAOFEN-5 01A","OBJECT_ID":"2022-165A","EPOCH":"2026-03-09T23:48:04.634784","MEAN_MOTION":14.5780943,"ECCENTRICITY":6.342e-5,"INCLINATION":98.2281,"RA_OF_ASC_NODE":7.3832,"ARG_OF_PERICENTER":37.2701,"MEAN_ANOMALY":322.8541,"EPHEMERIS_TYPE":0,"CLASSIFICATION_TYPE":"U","NORAD_CAT_ID":54640,"ELEMENT_SET_NO":999,"REV_AT_EPOCH":17296,"BSTAR":0.00017296307,"MEAN_MOTION_DOT":7.46e-6,"MEAN_MOTION_DDOT":0},{"OBJECT_NAME":"UNKNOWN","OBJECT_ID":"","EPOCH":"2026-03-08T08:13:28.320960","MEAN_MOTION":14.58058438,"ECCENTRICITY":0.0022953,"INCLINATION":81.2163,"RA_OF_ASC_NODE":205.0474,"ARG_OF_PERICENTER":37.0144,"MEAN_ANOMALY":323.2631,"EPHEMERIS_TYPE":0,"CLASSIFICATION_TYPE":"U","NORAD_CAT_ID":81683,"ELEMENT_SET_NO":999,"REV_AT_EPOCH":64833,"BSTAR":0.0014861,"MEAN_MOTION_DOT":6.876e-5,"MEAN_MOTION_DDOT":0}]
